[{"OBJECT_NAME":"STARLINK-31460","OBJECT_ID":"2024-036L","EPOCH":"2026-03-09T23:11:26.123712","MEAN_MOTION":15.30213399,"ECCENTRICITY":0.00013278,"INCLINATION":53.16,"RA_OF_ASC_NODE":76.9822,"ARG_OF_PERICENTER":88.5121,"MEAN_ANOMALY":271.6032,"EPHEMERIS_TYPE":0,"CLASSIFICATION_TYPE":"U","NORAD_CAT_ID":59008,"ELEMENT_SET_NO":999,"REV_AT_EPOCH":11536,"BSTAR":-9.737316e-5,"MEAN_MOTION_DOT":-3.243e-5,"MEAN_MOTION_DDOT":0},{"OBJECT_NAME":"FENGYUN 1C DEB","OBJECT_ID":"1999-025ETT","EPOCH":"2026-03-07T08:30:03.670560","MEAN_MOTION":15.28888299,"ECCENTRICITY":0.00158464,"INCLINATION":99.1103,"RA_OF_ASC_NODE":112.0072,"ARG_OF_PERICENTER":201.0032,"MEAN_ANOMALY":159.0553,"EPHEMERIS_TYPE":0,"CLASSIFICATION_TYPE":"U","NORAD_CAT_ID":38726,"ELEMENT_SET_NO":999,"REV_AT_EPOCH":71135,"BSTAR":0.013792546,"MEAN_MOTION_DOT":0.00409659,"MEAN_MOTION_DDOT":0}]
